SHIJIAN-28 (SJ-28)      
1 66549U 25277A   25355.50528398 -.00000333  00000+0  00000+0 0  9991
2 66549   4.9972 274.8194 0001047 135.9555 338.2496  1.00267410   379
CZ-7A R/B               
1 66550U 25277B   25352.37136448  .02663280  14058-5  30391-2 0  9996
2 66550  14.3533 266.9093 6879086 194.6822 125.1782  2.88841840   508
USA 568                 
1 66551U 24134K   25336.66670139 -.01709685  00000+0 -74303-2 0  9990
2 66551  53.1571 236.7807 0000717 110.7411 313.9012 15.87051116  2624
GLOBAL-33               
1 66554U 25267A   25354.42354734  .00009345  00000+0  30722-3 0  9996
2 66554  42.0214  12.6340 0003838 144.4876 215.6217 15.31621980  4580
STARLINK-35699          
1 66557U 25268A   25355.28472351  .00205122  00000+0  27523-2 0  9996
2 66557  42.9997  71.1659 0001900 233.6419 126.4268 15.56488327  5955
STARLINK-35695          
1 66558U 25268B   25355.50002315 -.00652544  00000+0 -96491-2 0  9997
2 66558  43.0001  69.8937 0001225 269.5713 220.1680 15.56693997  6077
STARLINK-35419          
1 66559U 25268C   25355.50002315 -.00028327  00000+0 -38681-3 0  9992
2 66559  43.0008  69.8897 0001491 271.5798 220.2015 15.56409634  6077
STARLINK-35411          
1 66560U 25268D   25355.50002315 -.00029375  00000+0 -40132-3 0  9992
2 66560  43.0007  69.8849 0001418 271.1120 222.5875 15.56412618  6074
STARLINK-35305          
1 66561U 25268E   25355.50002315 -.00026621  00000+0 -36307-3 0  9993
2 66561  43.0006  69.8753 0001634 272.2460 225.2844 15.56413522  6023
STARLINK-35579          
1 66562U 25268F   25355.50002315 -.00024566  00000+0 -33461-3 0  9998
2 66562  43.0007  69.8797 0001411 267.9078 227.7062 15.56411203  6070
STARLINK-35437          
1 66563U 25268G   25355.50002315 -.00021940  00000+0 -29819-3 0  9994
2 66563  43.0007  69.8702 0001443 266.2511 233.1939 15.56410843  6079
STARLINK-35358          
1 66564U 25268H   25355.50002315 -.00023713  00000+0 -32278-3 0  9998
2 66564  43.0006  69.8656 0001430 265.5504 235.8146 15.56410996  6020
