CCSDS_OMM_VERS = 2.0
CREATION_DATE  = 
ORIGINATOR     = 

OBJECT_NAME    = SHIJIAN-28 (SJ-28)
OBJECT_ID      = 2025-277A
CENTER_NAME    = EARTH
REF_FRAME      = TEME
TIME_SYSTEM    = UTC
MEAN_ELEMENT_THEORY = SGP/SGP4

EPOCH          = 2025-12-21T12:07:36.535872
MEAN_MOTION    = 1.00267410
ECCENTRICITY   = .0001047
INCLINATION    = 4.9972
RA_OF_ASC_NODE = 274.8194
ARG_OF_PERICENTER = 135.9555
MEAN_ANOMALY   = 338.2496

EPHEMERIS_TYPE = 0
CLASSIFICATION_TYPE = U
NORAD_CAT_ID   = 66549
ELEMENT_SET_NO = 999
REV_AT_EPOCH   = 37
BSTAR          = 0
MEAN_MOTION_DOT = -.333E-5
MEAN_MOTION_DDOT = 0

CCSDS_OMM_VERS = 2.0
CREATION_DATE  = 
ORIGINATOR     = 

OBJECT_NAME    = CZ-7A R/B
OBJECT_ID      = 2025-277B
CENTER_NAME    = EARTH
REF_FRAME      = TEME
TIME_SYSTEM    = UTC
MEAN_ELEMENT_THEORY = SGP/SGP4

EPOCH          = 2025-12-18T08:54:45.891072
MEAN_MOTION    = 2.88841840
ECCENTRICITY   = .6879086
INCLINATION    = 14.3533
RA_OF_ASC_NODE = 266.9093
ARG_OF_PERICENTER = 194.6822
MEAN_ANOMALY   = 125.1782

EPHEMERIS_TYPE = 0
CLASSIFICATION_TYPE = U
NORAD_CAT_ID   = 66550
ELEMENT_SET_NO = 999
REV_AT_EPOCH   = 50
BSTAR          = .30391E-2
MEAN_MOTION_DOT = .266328E-1
MEAN_MOTION_DDOT = .14058E-5

CCSDS_OMM_VERS = 2.0
CREATION_DATE  = 
ORIGINATOR     = 

OBJECT_NAME    = USA 568
OBJECT_ID      = 2024-134K
CENTER_NAME    = EARTH
REF_FRAME      = TEME
TIME_SYSTEM    = UTC
MEAN_ELEMENT_THEORY = SGP/SGP4

EPOCH          = 2025-12-02T16:00:03.000096
MEAN_MOTION    = 15.87051116
ECCENTRICITY   = .0000717
INCLINATION    = 53.1571
RA_OF_ASC_NODE = 236.7807
ARG_OF_PERICENTER = 110.7411
MEAN_ANOMALY   = 313.9012

EPHEMERIS_TYPE = 0
CLASSIFICATION_TYPE = U
NORAD_CAT_ID   = 66551
ELEMENT_SET_NO = 999
REV_AT_EPOCH   = 262
BSTAR          = -.74303E-2
MEAN_MOTION_DOT = -.1709685E-1
MEAN_MOTION_DDOT = 0

CCSDS_OMM_VERS = 2.0
CREATION_DATE  = 
ORIGINATOR     = 

OBJECT_NAME    = GLOBAL-33
OBJECT_ID      = 2025-267A
CENTER_NAME    = EARTH
REF_FRAME      = TEME
TIME_SYSTEM    = UTC
MEAN_ELEMENT_THEORY = SGP/SGP4

EPOCH          = 2025-12-20T10:09:54.490176
MEAN_MOTION    = 15.31621980
ECCENTRICITY   = .00038385
INCLINATION    = 42.0214
RA_OF_ASC_NODE = 12.6340
ARG_OF_PERICENTER = 144.4876
MEAN_ANOMALY   = 215.6217

EPHEMERIS_TYPE = 0
CLASSIFICATION_TYPE = U
NORAD_CAT_ID   = 66554
ELEMENT_SET_NO = 999
REV_AT_EPOCH   = 458
BSTAR          = .30721953E-3
MEAN_MOTION_DOT = .9345E-4
MEAN_MOTION_DDOT = 0

CCSDS_OMM_VERS = 2.0
CREATION_DATE  = 
ORIGINATOR     = 

OBJECT_NAME    = STARLINK-35699
OBJECT_ID      = 2025-268A
CENTER_NAME    = EARTH
REF_FRAME      = TEME
TIME_SYSTEM    = UTC
MEAN_ELEMENT_THEORY = SGP/SGP4

EPOCH          = 2025-12-21T06:50:00.111264
MEAN_MOTION    = 15.56488327
ECCENTRICITY   = .00019
INCLINATION    = 42.9997
RA_OF_ASC_NODE = 71.1659
ARG_OF_PERICENTER = 233.6419
MEAN_ANOMALY   = 126.4268

EPHEMERIS_TYPE = 0
CLASSIFICATION_TYPE = U
NORAD_CAT_ID   = 66557
ELEMENT_SET_NO = 999
REV_AT_EPOCH   = 595
BSTAR          = .27523E-2
MEAN_MOTION_DOT = .205122E-2
MEAN_MOTION_DDOT = 0

CCSDS_OMM_VERS = 2.0
CREATION_DATE  = 
ORIGINATOR     = 

OBJECT_NAME    = STARLINK-35695
OBJECT_ID      = 2025-268B
CENTER_NAME    = EARTH
REF_FRAME      = TEME
TIME_SYSTEM    = UTC
MEAN_ELEMENT_THEORY = SGP/SGP4

EPOCH          = 2025-12-21T12:00:02.000160
MEAN_MOTION    = 15.56693997
ECCENTRICITY   = .0001225
INCLINATION    = 43.0001
RA_OF_ASC_NODE = 69.8937
ARG_OF_PERICENTER = 269.5713
MEAN_ANOMALY   = 220.1680

EPHEMERIS_TYPE = 0
CLASSIFICATION_TYPE = U
NORAD_CAT_ID   = 66558
ELEMENT_SET_NO = 999
REV_AT_EPOCH   = 607
BSTAR          = -.96491E-2
MEAN_MOTION_DOT = -.652544E-2
MEAN_MOTION_DDOT = 0

CCSDS_OMM_VERS = 2.0
CREATION_DATE  = 
ORIGINATOR     = 

OBJECT_NAME    = STARLINK-35419
OBJECT_ID      = 2025-268C
CENTER_NAME    = EARTH
REF_FRAME      = TEME
TIME_SYSTEM    = UTC
MEAN_ELEMENT_THEORY = SGP/SGP4

EPOCH          = 2025-12-21T12:00:02.000160
MEAN_MOTION    = 15.56409634
ECCENTRICITY   = .0001491
INCLINATION    = 43.0008
RA_OF_ASC_NODE = 69.8897
ARG_OF_PERICENTER = 271.5798
MEAN_ANOMALY   = 220.2015

EPHEMERIS_TYPE = 0
CLASSIFICATION_TYPE = U
NORAD_CAT_ID   = 66559
ELEMENT_SET_NO = 999
REV_AT_EPOCH   = 607
BSTAR          = -.38681E-3
MEAN_MOTION_DOT = -.28327E-3
MEAN_MOTION_DDOT = 0

CCSDS_OMM_VERS = 2.0
CREATION_DATE  = 
ORIGINATOR     = 

OBJECT_NAME    = STARLINK-35411
OBJECT_ID      = 2025-268D
CENTER_NAME    = EARTH
REF_FRAME      = TEME
TIME_SYSTEM    = UTC
MEAN_ELEMENT_THEORY = SGP/SGP4

EPOCH          = 2025-12-21T12:00:02.000160
MEAN_MOTION    = 15.56412618
ECCENTRICITY   = .0001418
INCLINATION    = 43.0007
RA_OF_ASC_NODE = 69.8849
ARG_OF_PERICENTER = 271.1120
MEAN_ANOMALY   = 222.5875

EPHEMERIS_TYPE = 0
CLASSIFICATION_TYPE = U
NORAD_CAT_ID   = 66560
ELEMENT_SET_NO = 999
REV_AT_EPOCH   = 607
BSTAR          = -.40132E-3
MEAN_MOTION_DOT = -.29375E-3
MEAN_MOTION_DDOT = 0

CCSDS_OMM_VERS = 2.0
CREATION_DATE  = 
ORIGINATOR     = 

OBJECT_NAME    = STARLINK-35305
OBJECT_ID      = 2025-268E
CENTER_NAME    = EARTH
REF_FRAME      = TEME
TIME_SYSTEM    = UTC
MEAN_ELEMENT_THEORY = SGP/SGP4

EPOCH          = 2025-12-21T12:00:02.000160
MEAN_MOTION    = 15.56413522
ECCENTRICITY   = .0001634
INCLINATION    = 43.0006
RA_OF_ASC_NODE = 69.8753
ARG_OF_PERICENTER = 272.2460
MEAN_ANOMALY   = 225.2844

EPHEMERIS_TYPE = 0
CLASSIFICATION_TYPE = U
NORAD_CAT_ID   = 66561
ELEMENT_SET_NO = 999
REV_AT_EPOCH   = 602
BSTAR          = -.36307E-3
MEAN_MOTION_DOT = -.26621E-3
MEAN_MOTION_DDOT = 0

CCSDS_OMM_VERS = 2.0
CREATION_DATE  = 
ORIGINATOR     = 

OBJECT_NAME    = STARLINK-35579
OBJECT_ID      = 2025-268F
CENTER_NAME    = EARTH
REF_FRAME      = TEME
TIME_SYSTEM    = UTC
MEAN_ELEMENT_THEORY = SGP/SGP4

EPOCH          = 2025-12-21T12:00:02.000160
MEAN_MOTION    = 15.56411203
ECCENTRICITY   = .0001411
INCLINATION    = 43.0007
RA_OF_ASC_NODE = 69.8797
ARG_OF_PERICENTER = 267.9078
MEAN_ANOMALY   = 227.7062

EPHEMERIS_TYPE = 0
CLASSIFICATION_TYPE = U
NORAD_CAT_ID   = 66562
ELEMENT_SET_NO = 999
REV_AT_EPOCH   = 607
BSTAR          = -.33461E-3
MEAN_MOTION_DOT = -.24566E-3
MEAN_MOTION_DDOT = 0

CCSDS_OMM_VERS = 2.0
CREATION_DATE  = 
ORIGINATOR     = 

OBJECT_NAME    = STARLINK-35437
OBJECT_ID      = 2025-268G
CENTER_NAME    = EARTH
REF_FRAME      = TEME
TIME_SYSTEM    = UTC
MEAN_ELEMENT_THEORY = SGP/SGP4

EPOCH          = 2025-12-21T12:00:02.000160
MEAN_MOTION    = 15.56410843
ECCENTRICITY   = .0001443
INCLINATION    = 43.0007
RA_OF_ASC_NODE = 69.8702
ARG_OF_PERICENTER = 266.2511
MEAN_ANOMALY   = 233.1939

EPHEMERIS_TYPE = 0
CLASSIFICATION_TYPE = U
NORAD_CAT_ID   = 66563
ELEMENT_SET_NO = 999
REV_AT_EPOCH   = 607
BSTAR          = -.29819E-3
MEAN_MOTION_DOT = -.2194E-3
MEAN_MOTION_DDOT = 0

CCSDS_OMM_VERS = 2.0
CREATION_DATE  = 
ORIGINATOR     = 

OBJECT_NAME    = STARLINK-35358
OBJECT_ID      = 2025-268H
CENTER_NAME    = EARTH
REF_FRAME      = TEME
TIME_SYSTEM    = UTC
MEAN_ELEMENT_THEORY = SGP/SGP4

EPOCH          = 2025-12-21T12:00:02.000160
MEAN_MOTION    = 15.56410996
ECCENTRICITY   = .000143
INCLINATION    = 43.0006
RA_OF_ASC_NODE = 69.8656
ARG_OF_PERICENTER = 265.5504
MEAN_ANOMALY   = 235.8146

EPHEMERIS_TYPE = 0
CLASSIFICATION_TYPE = U
NORAD_CAT_ID   = 66564
ELEMENT_SET_NO = 999
REV_AT_EPOCH   = 602
BSTAR          = -.32278E-3
MEAN_MOTION_DOT = -.23713E-3
MEAN_MOTION_DDOT = 0

